{
  "type": "FeatureCollection",
  "features": [
    {
      "type": "Feature",
      "properties": {
        "norad_id": 22490,
        "name": "SCD 1",
        "group": "resource",
        "lat": -24.243925353592616,
        "lon": 162.83166562898697,
        "alt_km": 749.9637281867563,
        "timestamp": "2025-12-19T06:59:43.560325+00:00",
        "meta_object_name": "SCD 1",
        "meta_object_id": "1993-009B",
        "meta_epoch": "2025-12-18T10:33:14.558976",
        "meta_mean_motion": 14.46002995,
        "meta_eccentricity": 0.00420424,
        "meta_inclination": 24.9686,
        "meta_ra_of_asc_node": 243.5007,
        "meta_arg_of_pericenter": 25.3935,
        "meta_mean_anomaly": 135.5853,
        "meta_ephemeris_type": 0,
        "meta_classification_type": "U",
        "meta_norad_cat_id": 22490,
        "meta_element_set_no": 999,
        "meta_rev_at_epoch": 73492,
        "meta_bstar": 7.3091886e-05,
        "meta_mean_motion_dot": 4.52e-06,
        "meta_mean_motion_ddot": 0,
        "tle_line1": "1 22490U 93009B   25352.43975184  .00000452  00000+0  73092-4 0  9991",
        "tle_line2": "2 22490  24.9686 243.5007 0042042  25.3935 135.5853 14.46002995734929"
      },
      "geometry": {
        "type": "Point",
        "coordinates": [
          162.83166562898697,
          -24.243925353592616
        ]
      }
    },
    {
      "type": "Feature",
      "properties": {
        "norad_id": 25397,
        "name": "TECHSAT 1B (GO-32)",
        "group": "resource",
        "lat": -80.15331151511349,
        "lon": 90.82636726912985,
        "alt_km": 818.9386256654143,
        "timestamp": "2025-12-19T06:59:43.560351+00:00",
        "meta_object_name": "TECHSAT 1B (GO-32)",
        "meta_object_id": "1998-043D",
        "meta_epoch": "2025-12-18T23:00:24.698880",
        "meta_mean_motion": 14.24378824,
        "meta_eccentricity": 0.00018731,
        "meta_inclination": 98.9925,
        "meta_ra_of_asc_node": 336.3144,
        "meta_arg_of_pericenter": 47.5092,
        "meta_mean_anomaly": 312.6244,
        "meta_ephemeris_type": 0,
        "meta_classification_type": "U",
        "meta_norad_cat_id": 25397,
        "meta_element_set_no": 999,
        "meta_rev_at_epoch": 42567,
        "meta_bstar": 4.8738497e-05,
        "meta_mean_motion_dot": 6.6e-07,
        "meta_mean_motion_ddot": 0,
        "tle_line1": "1 25397U 98043D   25352.95861920  .00000066  00000+0  48738-4 0  9992",
        "tle_line2": "2 25397  98.9925 336.3144 0001873  47.5092 312.6244 14.24378824425679"
      },
      "geometry": {
        "type": "Point",
        "coordinates": [
          90.82636726912985,
          -80.15331151511349
        ]
      }
    },
    {
      "type": "Feature",
      "properties": {
        "norad_id": 25504,
        "name": "SCD 2",
        "group": "resource",
        "lat": -21.01137916159493,
        "lon": 45.96707218646433,
        "alt_km": 739.0397059149182,
        "timestamp": "2025-12-19T06:59:43.560367+00:00",
        "meta_object_name": "SCD 2",
        "meta_object_id": "1998-060A",
        "meta_epoch": "2025-12-18T15:14:50.678592",
        "meta_mean_motion": 14.45426465,
        "meta_eccentricity": 0.00168952,
        "meta_inclination": 24.9943,
        "meta_ra_of_asc_node": 105.5425,
        "meta_arg_of_pericenter": 16.0546,
        "meta_mean_anomaly": 104.7334,
        "meta_ephemeris_type": 0,
        "meta_classification_type": "U",
        "meta_norad_cat_id": 25504,
        "meta_element_set_no": 999,
        "meta_rev_at_epoch": 43417,
        "meta_bstar": 5.2682688e-05,
        "meta_mean_motion_dot": 3.7e-06,
        "meta_mean_motion_ddot": 0,
        "tle_line1": "1 25504U 98060A   25352.63530878  .00000370  00000+0  52683-4 0  9993",
        "tle_line2": "2 25504  24.9943 105.5425 0016895  16.0546 104.7334 14.45426465434174"
      },
      "geometry": {
        "type": "Point",
        "coordinates": [
          45.96707218646433,
          -21.01137916159493
        ]
      }
    },
    {
      "type": "Feature",
      "properties": {
        "norad_id": 25757,
        "name": "DLR-TUBSAT",
        "group": "resource",
        "lat": 61.733778747200056,
        "lon": -38.4520346465921,
        "alt_km": 715.2843371166791,
        "timestamp": "2025-12-19T06:59:43.560381+00:00",
        "meta_object_name": "DLR-TUBSAT",
        "meta_object_id": "1999-029B",
        "meta_epoch": "2025-12-17T13:22:10.787520",
        "meta_mean_motion": 14.52359578,
        "meta_eccentricity": 0.00141996,
        "meta_inclination": 98.6566,
        "meta_ra_of_asc_node": 336.2196,
        "meta_arg_of_pericenter": 177.8976,
        "meta_mean_anomaly": 182.2281,
        "meta_ephemeris_type": 0,
        "meta_classification_type": "U",
        "meta_norad_cat_id": 25757,
        "meta_element_set_no": 999,
        "meta_rev_at_epoch": 40688,
        "meta_bstar": 3.7650132e-05,
        "meta_mean_motion_dot": 1.05e-06,
        "meta_mean_motion_ddot": 0,
        "tle_line1": "1 25757U 99029B   25351.55706930  .00000105  00000+0  37650-4 0  9996",
        "tle_line2": "2 25757  98.6566 336.2196 0014199 177.8976 182.2281 14.52359578406886"
      },
      "geometry": {
        "type": "Point",
        "coordinates": [
          -38.4520346465921,
          61.733778747200056
        ]
      }
    },
    {
      "type": "Feature",
      "properties": {
        "norad_id": 25994,
        "name": "TERRA",
        "group": "resource",
        "lat": -32.46715383914027,
        "lon": 49.85204631158642,
        "alt_km": 697.3723269475649,
        "timestamp": "2025-12-19T06:59:43.560394+00:00",
        "meta_object_name": "TERRA",
        "meta_object_id": "1999-068A",
        "meta_epoch": "2025-12-18T21:48:31.154688",
        "meta_mean_motion": 14.60908676,
        "meta_eccentricity": 0.00035621,
        "meta_inclination": 97.974,
        "meta_ra_of_asc_node": 44.3666,
        "meta_arg_of_pericenter": 82.3399,
        "meta_mean_anomaly": 33.0253,
        "meta_ephemeris_type": 0,
        "meta_classification_type": "U",
        "meta_norad_cat_id": 25994,
        "meta_element_set_no": 999,
        "meta_rev_at_epoch": 38328,
        "meta_bstar": 8.6808347e-05,
        "meta_mean_motion_dot": 3.8e-06,
        "meta_mean_motion_ddot": 0,
        "tle_line1": "1 25994U 99068A   25352.90869392  .00000380  00000+0  86808-4 0  9998",
        "tle_line2": "2 25994  97.9740  44.3666 0003562  82.3399  33.0253 14.60908676383283"
      },
      "geometry": {
        "type": "Point",
        "coordinates": [
          49.85204631158642,
          -32.46715383914027
        ]
      }
    },
    {
      "type": "Feature",
      "properties": {
        "norad_id": 27004,
        "name": "MAROC-TUBSAT",
        "group": "resource",
        "lat": -17.895299515991905,
        "lon": 165.04741436545478,
        "alt_km": 1005.7300374052265,
        "timestamp": "2025-12-19T06:59:43.560406+00:00",
        "meta_object_name": "MAROC-TUBSAT",
        "meta_object_id": "2001-056D",
        "meta_epoch": "2025-12-18T23:07:19.779168",
        "meta_mean_motion": 13.70253243,
        "meta_eccentricity": 0.00191554,
        "meta_inclination": 99.7914,
        "meta_ra_of_asc_node": 161.5174,
        "meta_arg_of_pericenter": 243.5536,
        "meta_mean_anomaly": 280.7561,
        "meta_ephemeris_type": 0,
        "meta_classification_type": "U",
        "meta_norad_cat_id": 27004,
        "meta_element_set_no": 999,
        "meta_rev_at_epoch": 20150,
        "meta_bstar": 2.6406342e-05,
        "meta_mean_motion_dot": -2.3e-07,
        "meta_mean_motion_ddot": 0,
        "tle_line1": "1 27004U 01056D   25352.96342337 -.00000023  00000+0  26406-4 0  9996",
        "tle_line2": "2 27004  99.7914 161.5174 0019155 243.5536 280.7561 13.70253243201505"
      },
      "geometry": {
        "type": "Point",
        "coordinates": [
          165.04741436545478,
          -17.895299515991905
        ]
      }
    },
    {
      "type": "Feature",
      "properties": {
        "norad_id": 27424,
        "name": "AQUA",
        "group": "resource",
        "lat": -43.6086361558025,
        "lon": 126.18130170298346,
        "alt_km": 694.3329605905719,
        "timestamp": "2025-12-19T06:59:43.560433+00:00",
        "meta_object_name": "AQUA",
        "meta_object_id": "2002-022A",
        "meta_epoch": "2025-12-18T00:44:29.182848",
        "meta_mean_motion": 14.61821302,
        "meta_eccentricity": 0.00012878,
        "meta_inclination": 98.4043,
        "meta_ra_of_asc_node": 312.9961,
        "meta_arg_of_pericenter": 113.4651,
        "meta_mean_anomaly": 320.6588,
        "meta_ephemeris_type": 0,
        "meta_classification_type": "U",
        "meta_norad_cat_id": 27424,
        "meta_element_set_no": 999,
        "meta_rev_at_epoch": 25680,
        "meta_bstar": 0.00017905095,
        "meta_mean_motion_dot": 8.45e-06,
        "meta_mean_motion_ddot": 0,
        "tle_line1": "1 27424U 02022A   25352.03089332  .00000845  00000+0  17905-3 0  9991",
        "tle_line2": "2 27424  98.4043 312.9961 0001287 113.4651 320.6588 14.61821302256800"
      },
      "geometry": {
        "type": "Point",
        "coordinates": [
          126.18130170298346,
          -43.6086361558025
        ]
      }
    }
  ]
}